{"type": "FeatureCollection", "features": [ {"type": "Feature", "properties": {"norad_id": 40792, "name": "COSMOS 2251 DEB", "group": "cosmos-2251-debris", "lat": 18.796660607681723, "lon": -141.1631830385188, "alt_km": 657.7374056044473, "timestamp": "2025-12-14T07:33:19.877750+00:00", "meta": {"OBJECT_NAME": "COSMOS 2251 DEB", "OBJECT_ID": "1993-036BVV", "EPOCH": "2025-12-08T11:49:11.388288", "MEAN_MOTION": 14.67495133, "ECCENTRICITY": 0.00157828, "INCLINATION": 74.0463, "RA_OF_ASC_NODE": 55.6567, "ARG_OF_PERICENTER": 162.447, "MEAN_ANOMALY": 210.2984, "EPHEMERIS_TYPE": 0, "CLASSIFICATION_TYPE": "U", "NORAD_CAT_ID": 40792, "ELEMENT_SET_NO": 999, "REV_AT_EPOCH": 63122, "BSTAR": 0.0015277322, "MEAN_MOTION_DOT": 8.654e-05, "MEAN_MOTION_DDOT": 0}, "tle": {"line1": "1 40792U 93036BVV 25342.49249292  .00008654  00000+0  15277-2 0  9996", "line2": "2 40792  74.0463  55.6567 0015782 162.4470 210.2984 14.67495133631222"}}, "geometry": {"type": "Point", "coordinates": [-141.1631830385188, 18.796660607681723]}}, {"type": "Feature", "properties": {"norad_id": 40793, "name": "COSMOS 2251 DEB", "group": "cosmos-2251-debris", "lat": 50.152543024348, "lon": -37.77316192158884, "alt_km": 1021.6675792363822, "timestamp": "2025-12-14T07:33:19.877761+00:00", "meta": {"OBJECT_NAME": "COSMOS 2251 DEB", "OBJECT_ID": "1993-036BVW", "EPOCH": "2025-11-17T22:59:08.433600", "MEAN_MOTION": 14.0559149, "ECCENTRICITY": 0.02150611, "INCLINATION": 73.9793, "RA_OF_ASC_NODE": 208.5839, "ARG_OF_PERICENTER": 10.058, "MEAN_ANOMALY": 350.4754, "EPHEMERIS_TYPE": 0, "CLASSIFICATION_TYPE": "U", "NORAD_CAT_ID": 40793, "ELEMENT_SET_NO": 999, "REV_AT_EPOCH": 67897, "BSTAR": 0.0015211732, "MEAN_MOTION_DOT": 3.024e-05, "MEAN_MOTION_DDOT": 0}, "tle": {"line1": "1 40793U 93036BVW 25321.95773650  .00003024  00000+0  15212-2 0  9990", "line2": "2 40793  73.9793 208.5839 0215061  10.0580 350.4754 14.05591490678970"}}, "geometry": {"type": "Point", "coordinates": [-37.77316192158884, 50.152543024348]}}, {"type": "Feature", "properties": {"norad_id": 40794, "name": "COSMOS 2251 DEB", "group": "cosmos-2251-debris", "lat": -16.21494971278812, "lon": 116.266111023451, "alt_km": 591.5621518581875, "timestamp": "2025-12-14T07:33:19.877771+00:00", "meta": {"OBJECT_NAME": "COSMOS 2251 DEB", "OBJECT_ID": "1993-036BVX", "EPOCH": "2025-12-13T15:37:41.141568", "MEAN_MOTION": 14.93159868, "ECCENTRICITY": 0.00107848, "INCLINATION": 73.9763, "RA_OF_ASC_NODE": 122.399, "ARG_OF_PERICENTER": 261.0962, "MEAN_ANOMALY": 116.104, "EPHEMERIS_TYPE": 0, "CLASSIFICATION_TYPE": "U", "NORAD_CAT_ID": 40794, "ELEMENT_SET_NO": 999, "REV_AT_EPOCH": 61938, "BSTAR": 0.0047306735, "MEAN_MOTION_DOT": 0.00049759, "MEAN_MOTION_DDOT": 0}, "tle": {"line1": "1 40794U 93036BVX 25347.65117062  .00049759  00000+0  47307-2 0  9990", "line2": "2 40794  73.9763 122.3990 0010784 261.0962 116.1040 14.93159868619387"}}, "geometry": {"type": "Point", "coordinates": [116.266111023451, -16.21494971278812]}}, {"type": "Feature", "properties": {"norad_id": 40796, "name": "COSMOS 2251 DEB", "group": "cosmos-2251-debris", "lat": -39.29341450340368, "lon": 125.50517874884724, "alt_km": 601.451068099972, "timestamp": "2025-12-14T07:33:19.877781+00:00", "meta": {"OBJECT_NAME": "COSMOS 2251 DEB", "OBJECT_ID": "1993-036BVZ", "EPOCH": "2025-12-12T16:55:09.916896", "MEAN_MOTION": 14.81698665, "ECCENTRICITY": 0.00560879, "INCLINATION": 74.0118, "RA_OF_ASC_NODE": 142.2573, "ARG_OF_PERICENTER": 278.9039, "MEAN_ANOMALY": 95.9751, "EPHEMERIS_TYPE": 0, "CLASSIFICATION_TYPE": "U", "NORAD_CAT_ID": 40796, "ELEMENT_SET_NO": 999, "REV_AT_EPOCH": 76158, "BSTAR": 0.0013346453, "MEAN_MOTION_DOT": 0.00010785, "MEAN_MOTION_DDOT": 0}, "tle": {"line1": "1 40796U 93036BVZ 25346.70497589  .00010785  00000+0  13346-2 0  9995", "line2": "2 40796  74.0118 142.2573 0056087 278.9039  95.9751 14.81698665761584"}}, "geometry": {"type": "Point", "coordinates": [125.50517874884724, -39.29341450340368]}}, {"type": "Feature", "properties": {"norad_id": 40797, "name": "COSMOS 2251 DEB", "group": "cosmos-2251-debris", "lat": -7.416917163112542, "lon": -85.8054677021139, "alt_km": 584.517066042311, "timestamp": "2025-12-14T07:33:19.877791+00:00", "meta": {"OBJECT_NAME": "COSMOS 2251 DEB", "OBJECT_ID": "1993-036BWA", "EPOCH": "2025-11-19T18:43:16.602528", "MEAN_MOTION": 15.10509474, "ECCENTRICITY": 0.00703947, "INCLINATION": 73.92, "RA_OF_ASC_NODE": 143.0892, "ARG_OF_PERICENTER": 60.6639, "MEAN_ANOMALY": 300.156, "EPHEMERIS_TYPE": 0, "CLASSIFICATION_TYPE": "U", "NORAD_CAT_ID": 40797, "ELEMENT_SET_NO": 999, "REV_AT_EPOCH": 64297, "BSTAR": 0.00072810385, "MEAN_MOTION_DOT": 0.00012707, "MEAN_MOTION_DDOT": 0}, "tle": {"line1": "1 40797U 93036BWA 25323.78005327  .00012707  00000+0  72810-3 0  9992", "line2": "2 40797  73.9200 143.0892 0070394  60.6639 300.1560 15.10509474642979"}}, "geometry": {"type": "Point", "coordinates": [-85.8054677021139, -7.416917163112542]}}, {"type": "Feature", "properties": {"norad_id": 40799, "name": "COSMOS 2251 DEB", "group": "cosmos-2251-debris", "lat": 56.564399377882864, "lon": -110.73574984966393, "alt_km": 637.2344319830509, "timestamp": "2025-12-14T07:33:19.877802+00:00", "meta": {"OBJECT_NAME": "COSMOS 2251 DEB", "OBJECT_ID": "1993-036BWC", "EPOCH": "2025-12-13T13:22:39.892224", "MEAN_MOTION": 14.96671954, "ECCENTRICITY": 0.01192057, "INCLINATION": 73.926, "RA_OF_ASC_NODE": 96.6992, "ARG_OF_PERICENTER": 338.4049, "MEAN_ANOMALY": 21.2129, "EPHEMERIS_TYPE": 0, "CLASSIFICATION_TYPE": "U", "NORAD_CAT_ID": 40799, "ELEMENT_SET_NO": 999, "REV_AT_EPOCH": 49989, "BSTAR": 0.00041648324, "MEAN_MOTION_DOT": 5.451e-05, "MEAN_MOTION_DDOT": 0}, "tle": {"line1": "1 40799U 93036BWC 25347.55740616  .00005451  00000+0  41648-3 0  9995", "line2": "2 40799  73.9260  96.6992 0119205 338.4049  21.2129 14.96671954499896"}}, "geometry": {"type": "Point", "coordinates": [-110.73574984966393, 56.564399377882864]}}, {"type": "Feature", "properties": {"norad_id": 40802, "name": "COSMOS 2251 DEB", "group": "cosmos-2251-debris", "lat": 54.3714764370276, "lon": 173.46135810791597, "alt_km": 674.9089486285129, "timestamp": "2025-12-14T07:33:19.877812+00:00", "meta": {"OBJECT_NAME": "COSMOS 2251 DEB", "OBJECT_ID": "1993-036BWF", "EPOCH": "2025-12-09T18:25:18.853248", "MEAN_MOTION": 14.77560234, "ECCENTRICITY": 0.00632236, "INCLINATION": 74.04, "RA_OF_ASC_NODE": 158.8434, "ARG_OF_PERICENTER": 258.1677, "MEAN_ANOMALY": 101.2403, "EPHEMERIS_TYPE": 0, "CLASSIFICATION_TYPE": "U", "NORAD_CAT_ID": 40802, "ELEMENT_SET_NO": 999, "REV_AT_EPOCH": 64365, "BSTAR": 0.0011312786, "MEAN_MOTION_DOT": 8.327e-05, "MEAN_MOTION_DDOT": 0}, "tle": {"line1": "1 40802U 93036BWF 25343.76757932  .00008327  00000+0  11313-2 0  9998", "line2": "2 40802  74.0400 158.8434 0063223 258.1677 101.2403 14.77560234643650"}}, "geometry": {"type": "Point", "coordinates": [173.46135810791597, 54.3714764370276]}}, {"type": "Feature", "properties": {"norad_id": 40803, "name": "COSMOS 2251 DEB", "group": "cosmos-2251-debris", "lat": 61.83443740014198, "lon": -163.44495095970638, "alt_km": 735.6922485578971, "timestamp": "2025-12-14T07:33:19.877822+00:00", "meta": {"OBJECT_NAME": "COSMOS 2251 DEB", "OBJECT_ID": "1993-036BWG", "EPOCH": "2025-12-05T22:55:29.451072", "MEAN_MOTION": 14.51792027, "ECCENTRICITY": 0.00362816, "INCLINATION": 74.0122, "RA_OF_ASC_NODE": 64.6912, "ARG_OF_PERICENTER": 281.8159, "MEAN_ANOMALY": 77.8934, "EPHEMERIS_TYPE": 0, "CLASSIFICATION_TYPE": "U", "NORAD_CAT_ID": 40803, "ELEMENT_SET_NO": 999, "REV_AT_EPOCH": 58654, "BSTAR": 0.00062935795, "MEAN_MOTION_DOT": 2.525e-05, "MEAN_MOTION_DDOT": 0}, "tle": {"line1": "1 40803U 93036BWG 25339.95520198  .00002525  00000+0  62936-3 0  9999", "line2": "2 40803  74.0122  64.6912 0036281 281.8159  77.8934 14.51792027586549"}}, "geometry": {"type": "Point", "coordinates": [-163.44495095970638, 61.83443740014198]}}, {"type": "Feature", "properties": {"norad_id": 40808, "name": "COSMOS 2251 DEB", "group": "cosmos-2251-debris", "lat": 58.769597826164286, "lon": -65.72885056685239, "alt_km": 659.8531988125615, "timestamp": "2025-12-14T07:33:19.877832+00:00", "meta": {"OBJECT_NAME": "COSMOS 2251 DEB", "OBJECT_ID": "1993-036BWM", "EPOCH": "2025-12-12T17:28:24.743424", "MEAN_MOTION": 14.67479403, "ECCENTRICITY": 0.00092278, "INCLINATION": 74.041, "RA_OF_ASC_NODE": 145.4936, "ARG_OF_PERICENTER": 182.1345, "MEAN_ANOMALY": 195.7768, "EPHEMERIS_TYPE": 0, "CLASSIFICATION_TYPE": "U", "NORAD_CAT_ID": 40808, "ELEMENT_SET_NO": 999, "REV_AT_EPOCH": 63619, "BSTAR": 0.00245787, "MEAN_MOTION_DOT": 0.00013931, "MEAN_MOTION_DDOT": 0}, "tle": {"line1": "1 40808U 93036BWM 25346.72806416  .00013931  00000+0  24579-2 0  9990", "line2": "2 40808  74.0410 145.4936 0009227 182.1345 195.7768 14.67479403636197"}}, "geometry": {"type": "Point", "coordinates": [-65.72885056685239, 58.769597826164286]}}, {"type": "Feature", "properties": {"norad_id": 40810, "name": "COSMOS 2251 DEB", "group": "cosmos-2251-debris", "lat": -14.433642001361692, "lon": 67.51395803445861, "alt_km": 708.5634804129149, "timestamp": "2025-12-14T07:33:19.877842+00:00", "meta": {"OBJECT_NAME": "COSMOS 2251 DEB", "OBJECT_ID": "1993-036BWP", "EPOCH": "2025-12-11T13:47:10.605120", "MEAN_MOTION": 14.58706242, "ECCENTRICITY": 0.0018546, "INCLINATION": 74.0365, "RA_OF_ASC_NODE": 76.9551, "ARG_OF_PERICENTER": 228.6386, "MEAN_ANOMALY": 131.3185, "EPHEMERIS_TYPE": 0, "CLASSIFICATION_TYPE": "U", "NORAD_CAT_ID": 40810, "ELEMENT_SET_NO": 999, "REV_AT_EPOCH": 61666, "BSTAR": 0.0012743494, "MEAN_MOTION_DOT": 5.935e-05, "MEAN_MOTION_DDOT": 0}, "tle": {"line1": "1 40810U 93036BWP 25345.57442830  .00005935  00000+0  12743-2 0  9996", "line2": "2 40810  74.0365  76.9551 0018546 228.6386 131.3185 14.58706242616668"}}, "geometry": {"type": "Point", "coordinates": [67.51395803445861, -14.433642001361692]}}]}